ONEWEB-0116             
1 48046U 21025E   26091.18723603  .00000189  00000+0  48347-3 0  9996
2 48046  87.9016 335.5412 0001723  85.3299 274.8027 13.13472622243546
ONEWEB-0150             
1 48047U 21025F   26091.16353640 -.00000360  00000+0 -10213-2 0  9998
2 48047  87.9017 335.5436 0001535  78.7421 281.3880 13.13469283243435
ONEWEB-0107             
1 48048U 21025G   26091.16523564 -.00000251  00000+0 -72112-3 0  9999
2 48048  87.9016 335.5384 0001743  71.4678 288.6641 13.13471356243419
ONEWEB-0101             
1 48049U 21025H   26091.20417260  .00000391  00000+0  10367-2 0  9996
2 48049  87.9007 335.5545 0001813  77.2731 282.8601 13.13471913243399
ONEWEB-0113             
1 48050U 21025J   26091.17860917 -.00000076  00000+0 -24249-3 0  9992
2 48050  87.9015 335.4766 0001699  93.1408 266.9916 13.13951037243497
ONEWEB-0112             
1 48051U 21025K   26091.17030524 -.00000232  00000+0 -67110-3 0  9994
2 48051  87.9017 335.5348 0001945  76.2458 283.8887 13.13468615243487
ONEWEB-0156             
1 48052U 21025L   26091.17877218 -.00000171  00000+0 -50426-3 0  9998
2 48052  87.9016 335.5441 0001660  76.3094 283.8220 13.13471661243466
ONEWEB-0161             
1 48053U 21025M   26091.15338350 -.00000299  00000+0 -85249-3 0  9998
2 48053  87.9006 335.5566 0001685  73.7349 286.3965 13.13469524243396
ONEWEB-0158             
1 48054U 21025N   26091.18892740  .00000037  00000+0  65908-4 0  9999
2 48054  87.9017 335.5421 0001874  88.9826 271.1518 13.13471613243520
ONEWEB-0157             
1 48055U 21025P   26091.13814712  .00000260  00000+0  67657-3 0  9998
2 48055  87.9016 335.5568 0001823  67.3302 292.8020 13.13471703243456
ONEWEB-0162             
1 48056U 21025Q   26091.19050417  .00000267  00000+0  69518-3 0  9994
2 48056  87.9013 335.5503 0001565  78.7415 281.3890 13.13470438243437
ONEWEB-0155             
1 48057U 21025R   26091.19740125  .00000408  00000+0  10828-2 0  9993
2 48057  87.9009 335.5466 0001836  76.1403 283.9930 13.13471647243572
ONEWEB-0149             
1 48058U 21025S   26091.14323059  .00000172  00000+0  43597-3 0  9990
2 48058  87.9016 335.5559 0001487  78.5389 281.5907 13.13468498243371
ONEWEB-0148             
1 48059U 21025T   26091.18216561 -.00000010  00000+0 -61541-4 0  9997
2 48059  87.9010 335.5610 0001235  67.4311 292.6948 13.13469880243506
ONEWEB-0160             
1 48060U 21025U   26091.19909848  .00000356  00000+0  94055-3 0  9993
2 48060  87.9006 335.5537 0001893 104.0809 256.0531 13.13469313243458
ONEWEB-0163             
1 48061U 21025V   26091.18384895 -.00000165  00000+0 -48647-3 0  9998
2 48061  87.9009 335.5497 0001813  71.2374 288.8952 13.13470899243575
