[{"OBJECT_NAME":"ONEWEB-0116","OBJECT_ID":"2021-025E","EPOCH":"2026-04-01T04:29:37.192992","MEAN_MOTION":13.13472622,"ECCENTRICITY":0.0001723,"INCLINATION":87.9016,"RA_OF_ASC_NODE":335.5412,"ARG_OF_PERICENTER":85.3299,"MEAN_ANOMALY":274.8027,"EPHEMERIS_TYPE":0,"CLASSIFICATION_TYPE":"U","NORAD_CAT_ID":48046,"ELEMENT_SET_NO":999,"REV_AT_EPOCH":24354,"BSTAR":0.00048347,"MEAN_MOTION_DOT":1.89e-06,"MEAN_MOTION_DDOT":0.0},{"OBJECT_NAME":"ONEWEB-0150","OBJECT_ID":"2021-025F","EPOCH":"2026-04-01T03:55:29.544960","MEAN_MOTION":13.13469283,"ECCENTRICITY":0.0001535,"INCLINATION":87.9017,"RA_OF_ASC_NODE":335.5436,"ARG_OF_PERICENTER":78.7421,"MEAN_ANOMALY":281.388,"EPHEMERIS_TYPE":0,"CLASSIFICATION_TYPE":"U","NORAD_CAT_ID":48047,"ELEMENT_SET_NO":999,"REV_AT_EPOCH":24343,"BSTAR":-0.0010213,"MEAN_MOTION_DOT":-3.6e-06,"MEAN_MOTION_DDOT":0.0},{"OBJECT_NAME":"ONEWEB-0107","OBJECT_ID":"2021-025G","EPOCH":"2026-04-01T03:57:56.359296","MEAN_MOTION":13.13471356,"ECCENTRICITY":0.0001743,"INCLINATION":87.9016,"RA_OF_ASC_NODE":335.5384,"ARG_OF_PERICENTER":71.4678,"MEAN_ANOMALY":288.6641,"EPHEMERIS_TYPE":0,"CLASSIFICATION_TYPE":"U","NORAD_CAT_ID":48048,"ELEMENT_SET_NO":999,"REV_AT_EPOCH":24341,"BSTAR":-0.00072112,"MEAN_MOTION_DOT":-2.51e-06,"MEAN_MOTION_DDOT":0.0},{"OBJECT_NAME":"ONEWEB-0101","OBJECT_ID":"2021-025H","EPOCH":"2026-04-01T04:54:00.512640","MEAN_MOTION":13.13471913,"ECCENTRICITY":0.0001813,"INCLINATION":87.9007,"RA_OF_ASC_NODE":335.5545,"ARG_OF_PERICENTER":77.2731,"MEAN_ANOMALY":282.8601,"EPHEMERIS_TYPE":0,"CLASSIFICATION_TYPE":"U","NORAD_CAT_ID":48049,"ELEMENT_SET_NO":999,"REV_AT_EPOCH":24339,"BSTAR":0.0010367,"MEAN_MOTION_DOT":3.91e-06,"MEAN_MOTION_DDOT":0.0},{"OBJECT_NAME":"ONEWEB-0113","OBJECT_ID":"2021-025J","EPOCH":"2026-04-01T04:17:11.832288","MEAN_MOTION":13.13951037,"ECCENTRICITY":0.0001699,"INCLINATION":87.9015,"RA_OF_ASC_NODE":335.4766,"ARG_OF_PERICENTER":93.1408,"MEAN_ANOMALY":266.9916,"EPHEMERIS_TYPE":0,"CLASSIFICATION_TYPE":"U","NORAD_CAT_ID":48050,"ELEMENT_SET_NO":999,"REV_AT_EPOCH":24349,"BSTAR":-0.00024249000000000002,"MEAN_MOTION_DOT":-7.6e-07,"MEAN_MOTION_DDOT":0.0},{"OBJECT_NAME":"ONEWEB-0112","OBJECT_ID":"2021-025K","EPOCH":"2026-04-01T04:05:14.372736","MEAN_MOTION":13.13468615,"ECCENTRICITY":0.0001945,"INCLINATION":87.9017,"RA_OF_ASC_NODE":335.5348,"ARG_OF_PERICENTER":76.2458,"MEAN_ANOMALY":283.8887,"EPHEMERIS_TYPE":0,"CLASSIFICATION_TYPE":"U","NORAD_CAT_ID":48051,"ELEMENT_SET_NO":999,"REV_AT_EPOCH":24348,"BSTAR":-0.0006711,"MEAN_MOTION_DOT":-2.32e-06,"MEAN_MOTION_DDOT":0.0},{"OBJECT_NAME":"ONEWEB-0156","OBJECT_ID":"2021-025L","EPOCH":"2026-04-01T04:17:25.916352","MEAN_MOTION":13.13471661,"ECCENTRICITY":0.000166,"INCLINATION":87.9016,"RA_OF_ASC_NODE":335.5441,"ARG_OF_PERICENTER":76.3094,"MEAN_ANOMALY":283.822,"EPHEMERIS_TYPE":0,"CLASSIFICATION_TYPE":"U","NORAD_CAT_ID":48052,"ELEMENT_SET_NO":999,"REV_AT_EPOCH":24346,"BSTAR":-0.0005042600000000001,"MEAN_MOTION_DOT":-1.71e-06,"MEAN_MOTION_DDOT":0.0},{"OBJECT_NAME":"ONEWEB-0161","OBJECT_ID":"2021-025M","EPOCH":"2026-04-01T03:40:52.334400","MEAN_MOTION":13.13469524,"ECCENTRICITY":0.0001685,"INCLINATION":87.9006,"RA_OF_ASC_NODE":335.5566,"ARG_OF_PERICENTER":73.7349,"MEAN_ANOMALY":286.3965,"EPHEMERIS_TYPE":0,"CLASSIFICATION_TYPE":"U","NORAD_CAT_ID":48053,"ELEMENT_SET_NO":999,"REV_AT_EPOCH":24339,"BSTAR":-0.00085249,"MEAN_MOTION_DOT":-2.99e-06,"MEAN_MOTION_DDOT":0.0},{"OBJECT_NAME":"ONEWEB-0158","OBJECT_ID":"2021-025N","EPOCH":"2026-04-01T04:32:03.327360","MEAN_MOTION":13.13471613,"ECCENTRICITY":0.0001874,"INCLINATION":87.9017,"RA_OF_ASC_NODE":335.5421,"ARG_OF_PERICENTER":88.9826,"MEAN_ANOMALY":271.1518,"EPHEMERIS_TYPE":0,"CLASSIFICATION_TYPE":"U","NORAD_CAT_ID":48054,"ELEMENT_SET_NO":999,"REV_AT_EPOCH":24352,"BSTAR":6.5908e-05,"MEAN_MOTION_DOT":3.7e-07,"MEAN_MOTION_DDOT":0.0},{"OBJECT_NAME":"ONEWEB-0157","OBJECT_ID":"2021-025P","EPOCH":"2026-04-01T03:18:55.911168","MEAN_MOTION":13.13471703,"ECCENTRICITY":0.0001823,"INCLINATION":87.9016,"RA_OF_ASC_NODE":335.5568,"ARG_OF_PERICENTER":67.3302,"MEAN_ANOMALY":292.802,"EPHEMERIS_TYPE":0,"CLASSIFICATION_TYPE":"U","NORAD_CAT_ID":48055,"ELEMENT_SET_NO":999,"REV_AT_EPOCH":24345,"BSTAR":0.00067657,"MEAN_MOTION_DOT":2.6e-06,"MEAN_MOTION_DDOT":0.0},{"OBJECT_NAME":"ONEWEB-0162","OBJECT_ID":"2021-025Q","EPOCH":"2026-04-01T04:34:19.560288","MEAN_MOTION":13.13470438,"ECCENTRICITY":0.0001565,"INCLINATION":87.9013,"RA_OF_ASC_NODE":335.5503,"ARG_OF_PERICENTER":78.7415,"MEAN_ANOMALY":281.389,"EPHEMERIS_TYPE":0,"CLASSIFICATION_TYPE":"U","NORAD_CAT_ID":48056,"ELEMENT_SET_NO":999,"REV_AT_EPOCH":24343,"BSTAR":0.00069518,"MEAN_MOTION_DOT":2.67e-06,"MEAN_MOTION_DDOT":0.0},{"OBJECT_NAME":"ONEWEB-0155","OBJECT_ID":"2021-025R","EPOCH":"2026-04-01T04:44:15.468000","MEAN_MOTION":13.13471647,"ECCENTRICITY":0.0001836,"INCLINATION":87.9009,"RA_OF_ASC_NODE":335.5466,"ARG_OF_PERICENTER":76.1403,"MEAN_ANOMALY":283.993,"EPHEMERIS_TYPE":0,"CLASSIFICATION_TYPE":"U","NORAD_CAT_ID":48057,"ELEMENT_SET_NO":999,"REV_AT_EPOCH":24357,"BSTAR":0.0010828,"MEAN_MOTION_DOT":4.08e-06,"MEAN_MOTION_DDOT":0.0},{"OBJECT_NAME":"ONEWEB-0149","OBJECT_ID":"2021-025S","EPOCH":"2026-04-01T03:26:15.122976","MEAN_MOTION":13.13468498,"ECCENTRICITY":0.0001487,"INCLINATION":87.9016,"RA_OF_ASC_NODE":335.5559,"ARG_OF_PERICENTER":78.5389,"MEAN_ANOMALY":281.5907,"EPHEMERIS_TYPE":0,"CLASSIFICATION_TYPE":"U","NORAD_CAT_ID":48058,"ELEMENT_SET_NO":999,"REV_AT_EPOCH":24337,"BSTAR":0.00043597000000000004,"MEAN_MOTION_DOT":1.72e-06,"MEAN_MOTION_DDOT":0.0},{"OBJECT_NAME":"ONEWEB-0148","OBJECT_ID":"2021-025T","EPOCH":"2026-04-01T04:22:19.108704","MEAN_MOTION":13.1346988,"ECCENTRICITY":0.0001235,"INCLINATION":87.901,"RA_OF_ASC_NODE":335.561,"ARG_OF_PERICENTER":67.4311,"MEAN_ANOMALY":292.6948,"EPHEMERIS_TYPE":0,"CLASSIFICATION_TYPE":"U","NORAD_CAT_ID":48059,"ELEMENT_SET_NO":999,"REV_AT_EPOCH":24350,"BSTAR":-6.1541e-05,"MEAN_MOTION_DOT":-1e-07,"MEAN_MOTION_DDOT":0.0},{"OBJECT_NAME":"ONEWEB-0160","OBJECT_ID":"2021-025U","EPOCH":"2026-04-01T04:46:42.108672","MEAN_MOTION":13.13469313,"ECCENTRICITY":0.0001893,"INCLINATION":87.9006,"RA_OF_ASC_NODE":335.5537,"ARG_OF_PERICENTER":104.0809,"MEAN_ANOMALY":256.0531,"EPHEMERIS_TYPE":0,"CLASSIFICATION_TYPE":"U","NORAD_CAT_ID":48060,"ELEMENT_SET_NO":999,"REV_AT_EPOCH":24345,"BSTAR":0.0009405500000000001,"MEAN_MOTION_DOT":3.56e-06,"MEAN_MOTION_DDOT":0.0},{"OBJECT_NAME":"ONEWEB-0163","OBJECT_ID":"2021-025V","EPOCH":"2026-04-01T04:24:44.549280","MEAN_MOTION":13.13470899,"ECCENTRICITY":0.0001813,"INCLINATION":87.9009,"RA_OF_ASC_NODE":335.5497,"ARG_OF_PERICENTER":71.2374,"MEAN_ANOMALY":288.8952,"EPHEMERIS_TYPE":0,"CLASSIFICATION_TYPE":"U","NORAD_CAT_ID":48061,"ELEMENT_SET_NO":999,"REV_AT_EPOCH":24357,"BSTAR":-0.00048647,"MEAN_MOTION_DOT":-1.65e-06,"MEAN_MOTION_DDOT":0.0}]